[{"OBJECT_NAME":"STARLINK-6117","OBJECT_ID":"2023-046AQ","EPOCH":"2026-03-09T22:00:01.999584","MEAN_MOTION":15.12014927,"ECCENTRICITY":0.00011707,"INCLINATION":43.0011,"RA_OF_ASC_NODE":144.5633,"ARG_OF_PERICENTER":295.5966,"MEAN_ANOMALY":227.7394,"EPHEMERIS_TYPE":0,"CLASSIFICATION_TYPE":"U","NORAD_CAT_ID":56130,"ELEMENT_SET_NO":999,"REV_AT_EPOCH":578,"BSTAR":0.00047677406,"MEAN_MOTION_DOT":8.12e-5,"MEAN_MOTION_DDOT":0},{"OBJECT_NAME":"YAM-9","OBJECT_ID":"2025-276AE","EPOCH":"2026-03-09T22:50:50.806752","MEAN_MOTION":15.13845644,"ECCENTRICITY":0.00075521,"INCLINATION":97.4284,"RA_OF_ASC_NODE":143.9033,"ARG_OF_PERICENTER":298.5879,"MEAN_ANOMALY":61.4593,"EPHEMERIS_TYPE":0,"CLASSIFICATION_TYPE":"U","NORAD_CAT_ID":66694,"ELEMENT_SET_NO":999,"REV_AT_EPOCH":1533,"BSTAR":0.00045100507,"MEAN_MOTION_DOT":8.096e-5,"MEAN_MOTION_DDOT":0}]
